[
    {
        "Altitude(m)": 605470.734261864,
        "Argument of Periapsis(deg)": 0.0,
        "Eccentricity": 0.0,
        "Inclination(deg)": 60.0,
        "Latitude(deg)": 27.988025175091014,
        "Longitude(deg)": -92.73704998430405,
        "Mean Anomaly(deg)": 147.27270000000001,
        "RAAN(deg)": 205.0,
        "Satellite Name": "Test1 911",
        "Satellite Number": 911,
        "Semi-Major Axis(m)": 6980739.136638005,
        "Time(s)": 0
    },
    {
        "Altitude(m)": 605395.7728215873,
        "Argument of Periapsis(deg)": 0.00010418945913296404,
        "Eccentricity": 0.0,
        "Inclination(deg)": 60.0,
        "Latitude(deg)": 27.473715823920067,
        "Longitude(deg)": -92.38386284461178,
        "Mean Anomaly(deg)": 147.8928061454618,
        "RAAN(deg)": 204.99957995086024,
        "Satellite Name": "Test1 911",
        "Satellite Number": 911,
        "Semi-Major Axis(m)": 6980739.136638005,
        "Time(s)": 10
    }
]